IRIDIUM 150             
1 43257U 18030J   25220.79448448 -.00000024  00000+0 -15488-4 0  9999
2 43257  86.3917  61.0568 0001988  95.0755 265.0667 14.34217107385389
IRIDIUM 143             
1 43258U 18030K   25220.91499357  .00000205  00000+0  65986-4 0  9996
2 43258  86.3925  61.0873 0002223 102.5216 257.6228 14.34217457385330
IRIDIUM 161             
1 43478U 18047C   25220.48691025  .00000268  00000+0  73541-4 0  9991
2 43478  86.4474 219.0772 0002370  82.8985 277.2486 14.43278819380038
IRIDIUM 152             
1 43479U 18047D   25220.74818778  .00000129  00000+0  39003-4 0  9998
2 43479  86.3953 218.8291 0002181  86.8514 273.2931 14.34214841377701
IRIDIUM 147             
1 43480U 18047E   25220.75451682  .00000045  00000+0  89273-5 0  9990
2 43480  86.3955 218.8261 0002412  86.8940 273.2532 14.34217906377704
IRIDIUM 110             
1 43481U 18047F   25220.69109028  .00000019  00000+0 -27220-6 0  9995
2 43481  86.3961 218.9365 0002255  76.7986 283.3461 14.34217629377683
IRIDIUM 162             
1 43482U 18047G   25220.48061449  .00000148  00000+0  38054-4 0  9994
2 43482  86.4478 218.9749 0002166  82.1229 278.0218 14.43280914380026
IRIDIUM 160             
1 43569U 18061A   25220.91600140  .00000035  00000+0  54390-5 0  9998
2 43569  86.4013 187.2646 0002309  81.2243 278.9214 14.34217664368614
